KUIPER-00089            
1 64834U 25151U   25224.34485584  .00034817  00000+0  99525-3 0  9990
2 64834  51.8794 157.1022 0005545 252.4536 107.5844 15.35647578  4155
KUIPER-00090            
1 64835U 25151V   25224.08840136  .00016999  00000+0  49724-3 0  9997
2 64835  51.8794 158.3790 0005485 255.8604 104.1773 15.35356344  4104
KUIPER-00091            
1 64836U 25151W   25224.33710876  .00027645  00000+0  78417-3 0  9994
2 64836  51.8760 157.0431 0005427 225.1718 134.8828 15.36007567  4155
KUIPER-00092            
1 64837U 25151X   25224.53538938  .00043903  00000+0  12393-2 0  9999
2 64837  51.8793 156.1217 0004821 238.3723 121.6793 15.35935534  5398
KUIPER-00093            
1 64838U 25151Y   25224.40919649  .00031104  00000+0  88930-3 0  9999
2 64838  51.8785 156.7839 0004866 248.1664 111.8805 15.35699532  4162
KUIPER-00094            
1 64839U 25151Z   25224.53491997  .00024464  00000+0  69749-3 0  9993
2 64839  51.8784 156.1190 0004837 240.6334 119.4169 15.35919719  4412
